FLOCK 4G-17             
1 62681U 25009CA  26189.78440182  .00007793  00000+0  27097-3 0  9992
2 62681  97.3919 271.0428 0003523 242.1627 117.9257 15.29994187139857
FLOCK 4G-33             
1 62685U 25009CE  26189.76183029  .00004325  00000+0  17230-3 0  9994
2 62685  97.3940 269.3877 0004132 242.8969 117.1848 15.25750709 82093
FLOCK 4H-1              
1 66704U 25276AQ  26189.76377717  .00004841  00000+0  22270-3 0  9998
2 66704  97.4168 263.1104 0001363 193.1791 166.9409 15.20800136 33716
FLOCK 4H-2              
1 66705U 25276AR  26189.73861687  .00004680  00000+0  21373-3 0  9994
2 66705  97.4165 263.1320 0000937 159.9396 200.1877 15.21070317 33712
FLOCK 4H-3              
1 66706U 25276AS  26189.72491825  .00004294  00000+0  20140-3 0  9999
2 66706  97.4235 263.0459 0002348 287.4851  72.6128 15.20191910 33694
FLOCK 4H-4              
1 66707U 25276AT  26189.76010064  .00005339  00000+0  25112-3 0  9991
2 66707  97.4214 262.9508 0003137 288.3261  71.7633 15.19982082 33694
FLOCK 4H-5              
1 66708U 25276AU  26189.75626138  .00004806  00000+0  22078-3 0  9992
2 66708  97.4168 263.1240 0000876 135.3289 224.8018 15.20854292 33711
FLOCK 4H-6              
1 66709U 25276AV  26189.66934965  .00004404  00000+0  20436-3 0  9993
2 66709  97.4221 263.0803 0001932 236.3322 123.7730 15.20553045 33697
FLOCK 4H-7              
1 66710U 25276AW  26189.78180312  .00004319  00000+0  20178-3 0  9995
2 66710  97.4176 262.9540 0001125 352.0807   8.0410 15.20324922 33704
FLOCK 4H-8              
1 66711U 25276AX  26189.77315143  .00004518  00000+0  21027-3 0  9992
2 66711  97.4216 263.0907 0002004 311.5286  48.5777 15.20432587 33709
FLOCK 4H-9              
1 66712U 25276AY  26189.78821829  .00004679  00000+0  21578-3 0  9996
2 66712  97.4208 263.1984 0001919 247.0713 113.0320 15.20732306 33714
FLOCK 4H-10             
1 66713U 25276AZ  26189.74471355  .00005144  00000+0  24119-3 0  9990
2 66713  97.4183 262.8729 0002903 290.7514  69.3410 15.20108727 33692
FLOCK 4H-11             
1 66714U 25276BA  26189.78307072  .00009616  00000+0  40914-3 0  9998
2 66714  97.4191 263.4726 0001203 294.5608  65.5504 15.23214490 33739
FLOCK 4H-12             
1 66715U 25276BB  26188.72260260  .00004383  00000+0  20224-3 0  9997
2 66715  97.4179 262.0871 0001057 207.4810 152.6370 15.20748833 33860
FLOCK 4H-13             
1 66716U 25276BC  26189.74641870  .00004848  00000+0  22263-3 0  9992
2 66716  97.4216 263.2645 0001384 149.7349 210.3966 15.20860427 33714
FLOCK 4H-14             
1 66717U 25276BD  26189.64300106  .00004416  00000+0  20047-3 0  9995
2 66717  97.4196 263.2066 0001385 145.3489 214.7837 15.21309666 32951
